[{"OBJECT_NAME":"WILDFIRE 2","OBJECT_ID":"2023-133L","EPOCH":"2026-03-09T19:22:31.583136","MEAN_MOTION":13.8518725,"ECCENTRICITY":0.00045046,"INCLINATION":80.993,"RA_OF_ASC_NODE":102.8595,"ARG_OF_PERICENTER":298.2911,"MEAN_ANOMALY":61.779,"EPHEMERIS_TYPE":0,"CLASSIFICATION_TYPE":"U","NORAD_CAT_ID":57767,"ELEMENT_SET_NO":999,"REV_AT_EPOCH":12724,"BSTAR":6.4756906e-5,"MEAN_MOTION_DOT":8.4e-7,"MEAN_MOTION_DDOT":0},{"OBJECT_NAME":"SCOUT G-1 DEB","OBJECT_ID":"1986-088D","EPOCH":"2026-03-09T17:58:34.932288","MEAN_MOTION":13.86354444,"ECCENTRICITY":0.0006176,"INCLINATION":89.9258,"RA_OF_ASC_NODE":343.8156,"ARG_OF_PERICENTER":43.0976,"MEAN_ANOMALY":12.4756,"EPHEMERIS_TYPE":0,"CLASSIFICATION_TYPE":"U","NORAD_CAT_ID":18525,"ELEMENT_SET_NO":999,"REV_AT_EPOCH":98448,"BSTAR":0.00024283612,"MEAN_MOTION_DOT":2.91e-6,"MEAN_MOTION_DDOT":0}]
